[
    {
        "Altitude(m)": 605459.0019596054,
        "Argument of Periapsis(deg)": 0.0,
        "Eccentricity": 0.0,
        "Inclination(deg)": 60.0,
        "Latitude(deg)": 27.988126859785922,
        "Longitude(deg)": -87.2014140075608,
        "Mean Anomaly(deg)": -327.2727,
        "RAAN(deg)": 355.0,
        "Satellite Name": "Test1 1564",
        "Satellite Number": 1564,
        "Semi-Major Axis(m)": 6980739.136638005,
        "Time(s)": 0
    },
    {
        "Altitude(m)": 605535.7926539336,
        "Argument of Periapsis(deg)": 0.00010418945913296404,
        "Eccentricity": 0.0,
        "Inclination(deg)": 60.0,
        "Latitude(deg)": 28.501256364087247,
        "Longitude(deg)": -86.84446919559386,
        "Mean Anomaly(deg)": -326.65259385453817,
        "RAAN(deg)": 354.99957995086027,
        "Satellite Name": "Test1 1564",
        "Satellite Number": 1564,
        "Semi-Major Axis(m)": 6980739.136638005,
        "Time(s)": 10
    }
]